NORAD_CAT_ID,OBJECT_NAME,OBJECT_TYPE,EPOCH,MEAN_MOTION,ECCENTRICITY,INCLINATION,RA_OF_ASC_NODE,ARG_OF_PERICENTER,MEAN_ANOMALY,BSTAR,MEAN_MOTION_DOT,MEAN_MOTION_DDOT,TLE_LINE0,TLE_LINE1,TLE_LINE2,SEMIMAJOR_AXIS,PERIOD,APOGEE,PERIGEE,DECAYED
54775.0,STARLINK-5465,PAYLOAD,2023-05-08 21:48:58,15.08850282,8.14e-05,53.2175,13.7573,109.4276,250.6804,0.0007795,0.00012143,0.0,0 STARLINK-5465,1 54775U 22175T   23128.90900839  .00012143  00000-0  77950-3 0  9991,2 54775  53.2175  13.7573 0000814 109.4276 250.6804 15.08850282 23550,6917.849,95.437,540.277,539.151,0.0
54775.0,STARLINK-5465,PAYLOAD,2023-05-09 23:15:08,15.08847058,7.3e-05,53.2172,8.9993,109.0213,251.0858,0.00023344,3.43e-05,0.0,0 STARLINK-5465,1 54775U 22175T   23129.96884625  .00003430  00000-0  23344-3 0  9999,2 54775  53.2172   8.9993 0000730 109.0213 251.0858 15.08847058 23712,6917.859,95.437,540.229,539.219,0.0
54775.0,STARLINK-5465,PAYLOAD,2023-05-10 18:19:46,15.08841438,6.66e-05,53.2163,5.4325,93.448,266.6588,8.6673e-05,1.092e-05,0.0,0 STARLINK-5465,1 54775U 22175T   23130.76372827  .00001092  00000-0  86673-4 0  9992,2 54775  53.2163   5.4325 0000666  93.4480 266.6588 15.08841438 23834,6917.876,95.437,540.202,539.28,0.0
54775.0,STARLINK-5465,PAYLOAD,2023-05-10 23:05:55,15.08850679,7.49e-05,53.2166,4.5402,108.7482,251.3592,0.00015303,2.149e-05,0.0,0 STARLINK-5465,1 54775U 22175T   23130.96244369  .00002149  00000-0  15303-3 0  9998,2 54775  53.2166   4.5402 0000749 108.7482 251.3592 15.08850679 21704,6917.848,95.437,540.231,539.195,0.0
54775.0,STARLINK-5465,PAYLOAD,2023-05-11 21:21:19,15.08836466,0.0001057,53.217,0.3771,64.6264,295.4838,7.785e-05,9.51e-06,0.0,0 STARLINK-5465,1 54775U 22175T   23131.88981465  .00000951  00000-0  77850-4 0  9990,2 54775  53.2170   0.3771 0001057  64.6264 295.4838 15.08836466 24009,6917.891,95.438,540.487,539.025,0.0
54775.0,STARLINK-5465,PAYLOAD,2023-05-11 22:56:43,15.08838114,8.22e-05,53.2171,0.0796,72.4653,287.6429,8.6694e-05,1.092e-05,0.0,0 STARLINK-5465,1 54775U 22175T   23131.95605460  .00001092  00000-0  86694-4 0  9999,2 54775  53.2171   0.0796 0000822  72.4653 287.6429 15.08838114 24014,6917.886,95.438,540.32,539.183,0.0
54775.0,STARLINK-5465,PAYLOAD,2023-05-12 21:12:06,15.08849825,8.73e-05,53.2172,355.9136,80.4745,279.6346,0.00020436,2.967e-05,0.0,0 STARLINK-5465,1 54775U 22175T   23132.88341052  .00002967  00000-0  20436-3 0  9999,2 54775  53.2172 355.9136 0000873  80.4745 279.6346 15.08849825 24157,6917.85,95.437,540.319,539.111,0.0
54775.0,STARLINK-5465,PAYLOAD,2023-05-13 19:27:30,15.08839455,8.04e-05,53.2166,351.7523,66.3661,293.7416,0.00023733,3.491e-05,0.0,0 STARLINK-5465,1 54775U 22175T   23133.81077527  .00003491  00000-0  23733-3 0  9992,2 54775  53.2166 351.7523 0000804  66.3661 293.7416 15.08839455 22137,6917.882,95.438,540.303,539.191,0.0
54775.0,STARLINK-5465,PAYLOAD,2023-05-13 21:02:54,15.08831619,8.24e-05,53.2168,351.4551,73.9276,286.1807,0.0004738,7.259e-05,0.0,0 STARLINK-5465,1 54775U 22175T   23133.87701910  .00007259  00000-0  47380-3 0  9998,2 54775  53.2168 351.4551 0000824  73.9276 286.1807 15.08831619 24300,6917.906,95.438,540.341,539.201,0.0
54775.0,STARLINK-5465,PAYLOAD,2023-05-14 14:32:08,15.08838644,9.89e-05,53.2168,348.1849,71.4086,288.7013,1.496e-05,-5e-07,0.0,0 STARLINK-5465,1 54775U 22175T   23134.60565519 -.00000050  00000-0  14960-4 0  9995,2 54775  53.2168 348.1849 0000989  71.4086 288.7013 15.08838644 24411,6917.885,95.438,540.434,539.065,0.0
54775.0,STARLINK-5465,PAYLOAD,2023-05-14 20:53:40,15.0884961,7.86e-05,53.2175,346.9948,82.7542,277.3539,-2.027e-05,-6.1e-06,0.0,0 STARLINK-5465,1 54775U 22175T   23134.87060927 -.00000610  00000-0 -20270-4 0  9991,2 54775  53.2175 346.9948 0000786  82.7542 277.3539 15.08849610 22298,6917.851,95.437,540.26,539.172,0.0
54775.0,STARLINK-5465,PAYLOAD,2023-05-15 00:04:26,15.08845913,9.2e-05,53.2174,346.3993,81.5517,278.5579,8.4739e-05,1.061e-05,0.0,0 STARLINK-5465,1 54775U 22175T   23135.00308886  .00001061  00000-0  84739-4 0  9995,2 54775  53.2174 346.3993 0000920  81.5517 278.5579 15.08845913 24471,6917.862,95.437,540.364,539.091,0.0
54775.0,STARLINK-5465,PAYLOAD,2023-05-15 14:22:56,15.08831799,7.75e-05,53.2175,343.7248,69.4128,290.6947,6.1532e-06,-1.9e-06,0.0,0 STARLINK-5465,1 54775U 22175T   23135.59926091 -.00000190  00000-0  61532-5 0  9993,2 54775  53.2175 343.7248 0000775  69.4128 290.6947 15.08831799 22409,6917.905,95.438,540.307,539.234,0.0
54775.0,STARLINK-5465,PAYLOAD,2023-05-16 14:13:42,15.08836462,8.49e-05,53.2171,339.2622,94.3034,265.8055,9.5853e-05,1.238e-05,0.0,0 STARLINK-5465,1 54775U 22175T   23136.59285737  .00001238  00000-0  95853-4 0  9994,2 54775  53.2171 339.2622 0000849  94.3034 265.8055 15.08836462 24718,6917.891,95.438,540.344,539.169,0.0
54775.0,STARLINK-5465,PAYLOAD,2023-05-16 15:49:06,15.08836353,9.38e-05,53.2173,338.9649,98.0991,262.0108,9.409e-05,1.21e-05,0.0,0 STARLINK-5465,1 54775U 22175T   23136.65909773  .00001210  00000-0  94090-4 0  9996,2 54775  53.2173 338.9649 0000938  98.0991 262.0108 15.08836353 22565,6917.892,95.438,540.405,539.108,0.0
54775.0,STARLINK-5465,PAYLOAD,2023-05-16 20:35:15,15.08838621,8.58e-05,53.2175,338.0733,91.5927,268.5164,0.00011035,1.469e-05,0.0,0 STARLINK-5465,1 54775U 22175T   23136.85781666  .00001469  00000-0  11035-3 0  9990,2 54775  53.2175 338.0733 0000858  91.5927 268.5164 15.08838621 24756,6917.885,95.438,540.343,539.156,0.0
54775.0,STARLINK-5465,PAYLOAD,2023-05-17 02:56:48,15.08830231,0.0001018,53.2177,336.8833,89.5832,270.5277,-3.1499e-05,-7.89e-06,0.0,0 STARLINK-5465,1 54775U 22175T   23137.12278490 -.00000789  00000-0 -31499-4 0  9990,2 54775  53.2177 336.8833 0001018  89.5832 270.5277 15.08830231 22638,6917.91,95.438,540.479,539.071,0.0
54775.0,STARLINK-5465,PAYLOAD,2023-05-17 18:50:39,15.08838382,9.4e-05,53.2166,333.91,93.5344,266.5756,8.6835e-05,1.094e-05,0.0,0 STARLINK-5465,1 54775U 22175T   23137.78517859  .00001094  00000-0  86835-4 0  9999,2 54775  53.2166 333.9100 0000940  93.5344 266.5756 15.08838382 22730,6917.885,95.438,540.401,539.1,0.0
54775.0,STARLINK-5465,PAYLOAD,2023-05-17 20:26:02,15.08840134,9.28e-05,53.2168,333.6127,91.3007,268.8092,0.00011653,1.567e-05,0.0,0 STARLINK-5465,1 54775U 22175T   23137.85141813  .00001567  00000-0  11653-3 0  9990,2 54775  53.2168 333.6127 0000928  91.3007 268.8092 15.08840134 24903,6917.88,95.438,540.387,539.103,0.0
54775.0,STARLINK-5465,PAYLOAD,2023-05-18 05:58:21,15.088409,9.08e-05,53.2164,331.8285,92.3161,267.7935,0.00011914,1.609e-05,0.0,0 STARLINK-5465,1 54775U 22175T   23138.24885759  .00001609  00000-0  11914-3 0  9995,2 54775  53.2164 331.8285 0000908  92.3161 267.7935 15.08840900 24965,6917.878,95.437,540.371,539.114,0.0
54775.0,STARLINK-5465,PAYLOAD,2023-05-18 21:52:12,15.08844112,8.85e-05,53.2161,328.8548,92.2733,267.836,0.0002151,3.138e-05,0.0,0 STARLINK-5465,1 54775U 22175T   23138.91125710  .00003138  00000-0  21510-3 0  9995,2 54775  53.2161 328.8548 0000885  92.2733 267.8360 15.08844112 25062,6917.868,95.437,540.345,539.121,0.0
54775.0,STARLINK-5465,PAYLOAD,2023-05-19 18:32:13,15.08843012,8.54e-05,53.2162,324.9888,90.2487,269.8603,0.00015347,2.156e-05,0.0,0 STARLINK-5465,1 54775U 22175T   23139.77237816  .00002156  00000-0  15347-3 0  9991,2 54775  53.2162 324.9888 0000854  90.2487 269.8603 15.08843012 23032,6917.871,95.437,540.327,539.145,0.0
54775.0,STARLINK-5465,PAYLOAD,2023-05-20 18:23:00,15.08854003,9.69e-05,53.2161,320.5285,95.9081,264.2022,0.00026937,4.003e-05,0.0,0 STARLINK-5465,1 54775U 22175T   23140.76597242  .00004003  00000-0  26937-3 0  9994,2 54775  53.2161 320.5285 0000969  95.9081 264.2022 15.08854003 25345,6917.838,95.437,540.373,539.032,0.0
54775.0,STARLINK-5465,PAYLOAD,2023-05-21 05:30:43,15.08826684,8.66e-05,53.2158,318.4485,68.0567,292.0518,-9.7344e-05,-1.836e-05,0.0,0 STARLINK-5465,1 54775U 22175T   23141.22966902 -.00001836  00000-0 -97344-4 0  9993,2 54775  53.2158 318.4485 0000866  68.0567 292.0518 15.08826684 23256,6917.921,95.438,540.385,539.187,0.0
54775.0,STARLINK-5465,PAYLOAD,2023-05-21 18:13:49,15.08806595,9.02e-05,53.2157,316.0695,65.5843,294.5243,-0.00033799,-5.658e-05,0.0,0 STARLINK-5465,1 54775U 22175T   23141.75960382 -.00005658  00000-0 -33799-3 0  9996,2 54775  53.2157 316.0695 0000902  65.5843 294.5243 15.08806595 23332,6917.982,95.44,540.471,539.223,0.0
54775.0,STARLINK-5465,PAYLOAD,2023-05-21 21:24:36,15.08808085,9.3e-05,53.2161,315.4731,75.9663,284.1432,-0.00025213,-4.294e-05,0.0,0 STARLINK-5465,1 54775U 22175T   23141.89208630 -.00004294  00000-0 -25213-3 0  9999,2 54775  53.2161 315.4731 0000930  75.9663 284.1432 15.08808085 25510,6917.978,95.44,540.486,539.2,0.0
54775.0,STARLINK-5465,PAYLOAD,2023-05-22 18:04:36,15.08839403,6.93e-05,53.2162,311.6088,358.8888,1.2102,0.00045345,6.936e-05,0.0,0 STARLINK-5465,1 54775U 22175T   23142.75320155  .00006936  00000-0  45345-3 0  9993,2 54775  53.2162 311.6088 0000693 358.8888   1.2102 15.08839403 23486,6917.882,95.438,540.227,539.268,0.0
54775.0,STARLINK-5465,PAYLOAD,2023-05-22 21:15:22,15.0886079,9.12e-05,53.2164,311.014,55.5978,304.5101,0.00088447,0.00013824,0.0,0 STARLINK-5465,1 54775U 22175T   23142.88567665  .00013824  00000-0  88447-3 0  9990,2 54775  53.2164 311.0140 0000912  55.5978 304.5101 15.08860790 25669,6917.817,95.436,540.313,539.051,0.0
54775.0,STARLINK-5465,PAYLOAD,2023-05-23 02:01:32,15.08861088,0.0001139,53.2172,310.1197,51.081,309.0284,0.00072133,0.00011217,0.0,0 STARLINK-5465,1 54775U 22175T   23143.08439981  .00011217  00000-0  72133-3 0  9991,2 54775  53.2172 310.1197 0001139  51.0810 309.0284 15.08861088 23535,6917.816,95.436,540.469,538.893,0.0
54775.0,STARLINK-5465,PAYLOAD,2023-05-23 21:06:08,15.08878919,8.42e-05,53.2172,306.5531,46.8139,313.2924,0.0015499,0.00024491,0.0,0 STARLINK-5465,1 54775U 22175T   23143.87926599  .00024491  00000-0  15499-2 0  9993,2 54775  53.2172 306.5531 0000842  46.8139 313.2924 15.08878919 25814,6917.761,95.435,540.209,539.044,0.0
